NORAD_CAT_ID,OBJECT_NAME,OBJECT_TYPE,EPOCH,MEAN_MOTION,ECCENTRICITY,INCLINATION,RA_OF_ASC_NODE,ARG_OF_PERICENTER,MEAN_ANOMALY,BSTAR,MEAN_MOTION_DOT,MEAN_MOTION_DDOT,TLE_LINE0,TLE_LINE1,TLE_LINE2,SEMIMAJOR_AXIS,PERIOD,APOGEE,PERIGEE,DECAYED
52855.0,STARLINK-4209,PAYLOAD,2022-11-06 11:22:07,15.08841784,0.0001812,53.2161,97.3862,54.3495,305.7666,1.3108e-05,-8e-07,0.0,0 STARLINK-4209,1 52855U 22062AB  22310.47369489 -.00000080  00000-0  13108-4 0  9991,2 52855  53.2161  97.3862 0001812  54.3495 305.7666 15.08841784 21868,6917.875,95.437,540.993,538.486,0.0
52855.0,STARLINK-4209,PAYLOAD,2022-11-06 16:08:16,15.08843203,0.0001832,53.2162,96.494,53.2053,306.9107,0.00010645,1.407e-05,0.0,0 STARLINK-4209,1 52855U 22062AB  22310.67241492  .00001407  00000-0  10645-3 0  9991,2 52855  53.2162  96.4940 0001832  53.2053 306.9107 15.08843203 22385,6917.871,95.437,541.003,538.4680000000002,0.0
52855.0,STARLINK-4209,PAYLOAD,2022-11-07 11:12:54,15.08839642,0.0001893,53.2155,92.9259,52.9716,307.145,0.00018407,2.643e-05,0.0,0 STARLINK-4209,1 52855U 22062AB  22311.46729777  .00002643  00000-0  18407-3 0  9993,2 52855  53.2155  92.9259 0001893  52.9716 307.1450 15.08839642 22500,6917.880999999999,95.438,541.056,538.437,0.0
52855.0,STARLINK-4209,PAYLOAD,2022-11-07 19:09:49,15.08849149,0.0001801,53.2158,91.4378,55.4618,304.6544,0.00038601,5.862e-05,0.0,0 STARLINK-4209,1 52855U 22062AB  22311.79849381  .00005862  00000-0  38601-3 0  9997,2 52855  53.2158  91.4378 0001801  55.4618 304.6544 15.08849149 22067,6917.852,95.437,540.9630000000002,538.472,0.0
52855.0,STARLINK-4209,PAYLOAD,2022-11-08 06:17:31,15.08856354,0.0001834,53.2156,89.3561,55.4286,304.6879,0.00033859,5.107e-05,0.0,0 STARLINK-4209,1 52855U 22062AB  22312.26216798  .00005107  00000-0  33859-3 0  9992,2 52855  53.2156  89.3561 0001834  55.4286 304.6879 15.08856354 22621,6917.83,95.437,540.964,538.427,0.0
52855.0,STARLINK-4209,PAYLOAD,2022-11-08 09:28:17,15.08856881,0.0001817,53.2158,88.7615,54.2714,305.8447,0.00033139,4.992e-05,0.0,0 STARLINK-4209,1 52855U 22062AB  22312.39464647  .00004992  00000-0  33139-3 0  9996,2 52855  53.2158  88.7615 0001817  54.2714 305.8447 15.08856881 22157,6917.829000000002,95.436,540.951,538.437,0.0
52855.0,STARLINK-4209,PAYLOAD,2022-11-08 15:49:49,15.08858031,0.0001898,53.2157,87.5723,51.924,308.1924,0.00038919,5.914e-05,0.0,0 STARLINK-4209,1 52855U 22062AB  22312.65960464  .00005914  00000-0  38919-3 0  9999,2 52855  53.2157  87.5723 0001898  51.9240 308.1924 15.08858031 22199,6917.825,95.436,541.003,538.377,0.0
52855.0,STARLINK-4209,PAYLOAD,2022-11-09 14:05:13,15.08833812,0.0001856,53.2165,83.4093,48.4223,311.6928,-0.00038731,-6.446e-05,0.0,0 STARLINK-4209,1 52855U 22062AB  22313.58696283 -.00006446  00000-0 -38731-3 0  9992,2 52855  53.2165  83.4093 0001856  48.4223 311.6928 15.08833812 22338,6917.899,95.438,541.048,538.48,0.0
52855.0,STARLINK-4209,PAYLOAD,2022-11-09 18:51:23,15.08829301,0.0001967,53.2167,82.5179,47.0953,313.0204,-3.435e-05,-8.35e-06,0.0,0 STARLINK-4209,1 52855U 22062AB  22313.78568477 -.00000835  00000-0 -34350-4 0  9997,2 52855  53.2167  82.5179 0001967  47.0953 313.0204 15.08829301 22851,6917.913000000001,95.438,541.139,538.4169999999998,0.0
52855.0,STARLINK-4209,PAYLOAD,2022-11-10 10:45:14,15.08843761,0.000194,53.2171,79.5449,46.8124,313.303,0.00055921,8.624e-05,0.0,0 STARLINK-4209,1 52855U 22062AB  22314.44808597  .00008624  00000-0  55921-3 0  9999,2 52855  53.2171  79.5449 0001940  46.8124 313.3030 15.08843761 22463,6917.869000000002,95.437,541.076,538.3919999999998,0.0
52855.0,STARLINK-4209,PAYLOAD,2022-11-10 15:31:24,15.08833863,0.0002394,53.2184,78.6537,34.854,325.2608,0.00030349,4.544e-05,0.0,0 STARLINK-4209,1 52855U 22062AB  22314.64681026  .00004544  00000-0  30349-3 0  9991,2 52855  53.2184  78.6537 0002394  34.8540 325.2608 15.08833863 22496,6917.899,95.438,541.42,538.1080000000002,0.0
52855.0,STARLINK-4209,PAYLOAD,2022-11-11 01:03:43,15.08837777,0.0001992,53.2176,76.87,42.3962,317.7184,0.00022511,3.296e-05,0.0,0 STARLINK-4209,1 52855U 22062AB  22315.04424983  .00003296  00000-0  22511-3 0  9998,2 52855  53.2176  76.8700 0001992  42.3962 317.7184 15.08837777 23049,6917.887,95.438,541.13,538.374,0.0
52855.0,STARLINK-4209,PAYLOAD,2022-11-11 12:11:25,15.08832247,0.0001814,53.2171,74.7876,45.4136,314.7004,0.00018021,2.581e-05,0.0,0 STARLINK-4209,1 52855U 22062AB  22315.50793698  .00002581  00000-0  18021-3 0  9998,2 52855  53.2171  74.7876 0001814  45.4136 314.7004 15.08832247 22623,6917.904,95.438,541.024,538.514,0.0
52855.0,STARLINK-4209,PAYLOAD,2022-11-11 13:46:48,15.08833754,0.0001813,53.2171,74.4903,45.1606,314.9534,0.00023685,3.483e-05,0.0,0 STARLINK-4209,1 52855U 22062AB  22315.57417719  .00003483  00000-0  23685-3 0  9996,2 52855  53.2171  74.4903 0001813  45.1606 314.9534 15.08833754 23129,6917.899,95.438,541.019,538.51,0.0
52855.0,STARLINK-4209,PAYLOAD,2022-11-11 18:32:58,15.08837193,0.0001794,53.2167,73.5988,42.2722,317.8408,0.00031491,4.727e-05,0.0,0 STARLINK-4209,1 52855U 22062AB  22315.77289727  .00004727  00000-0  31491-3 0  9990,2 52855  53.2167  73.5988 0001794  42.2722 317.8408 15.08837193 22663,6917.889,95.438,540.995,538.513,0.0
52855.0,STARLINK-4209,PAYLOAD,2022-11-12 12:02:12,15.08851407,0.0001903,53.2171,70.3279,40.1317,319.9815,0.00060569,9.368e-05,0.0,0 STARLINK-4209,1 52855U 22062AB  22316.50153511  .00009368  00000-0  60569-3 0  9997,2 52855  53.2171  70.3279 0001903  40.1317 319.9815 15.08851407 22776,6917.846,95.437,541.0269999999998,538.394,0.0
52855.0,STARLINK-4209,PAYLOAD,2022-11-13 03:56:03,15.08849577,0.0002065,53.2166,67.3556,41.5514,318.5635,0.00019552,2.826e-05,0.0,0 STARLINK-4209,1 52855U 22062AB  22317.16393196  .00002826  00000-0  19552-3 0  9993,2 52855  53.2166  67.3556 0002065  41.5514 318.5635 15.08849577 23364,6917.851,95.437,541.145,538.288,0.0
52855.0,STARLINK-4209,PAYLOAD,2022-11-13 11:52:59,15.08836565,0.0002045,53.217,65.8678,40.7678,319.3467,-4.7772e-05,-1.048e-05,0.0,0 STARLINK-4209,1 52855U 22062AB  22317.49513719 -.00001048  00000-0 -47772-4 0  9997,2 52855  53.2170  65.8678 0002045  40.7678 319.3467 15.08836565 23418,6917.891,95.438,541.1709999999998,538.341,0.0
52855.0,STARLINK-4209,PAYLOAD,2022-11-13 15:03:46,15.08836842,0.0002148,53.2166,65.2733,38.3658,321.7486,-3.3354e-05,-8.19e-06,0.0,0 STARLINK-4209,1 52855U 22062AB  22317.62761693 -.00000819  00000-0 -33354-4 0  9994,2 52855  53.2166  65.2733 0002148  38.3658 321.7486 15.08836842 22947,6917.89,95.438,541.241,538.269,0.0
52855.0,STARLINK-4209,PAYLOAD,2022-11-14 06:57:38,15.08826342,0.0002115,53.2161,62.3003,39.8424,320.2723,2.3361e-05,8.3e-07,0.0,0 STARLINK-4209,1 52855U 22062AB  22318.29002627  .00000083  00000-0  23361-4 0  9991,2 52855  53.2161  62.3003 0002115  39.8424 320.2723 15.08826342 23539,6917.922,95.438,541.25,538.3240000000002,0.0
52855.0,STARLINK-4209,PAYLOAD,2022-11-14 11:43:47,15.08833158,0.0002202,53.2163,61.409,39.949,320.1664,0.00015697,2.21e-05,0.0,0 STARLINK-4209,1 52855U 22062AB  22318.48874687  .00002210  00000-0  15697-3 0  9991,2 52855  53.2163  61.4090 0002202  39.9490 320.1664 15.08833158 23073,6917.901,95.438,541.29,538.243,0.0
52855.0,STARLINK-4209,PAYLOAD,2022-11-14 13:19:10,15.08836312,0.0002156,53.2162,61.1112,40.6129,319.5023,0.00025191,3.723e-05,0.0,0 STARLINK-4209,1 52855U 22062AB  22318.55498651  .00003723  00000-0  25191-3 0  9992,2 52855  53.2162  61.1112 0002156  40.6129 319.5023 15.08836312 23087,6917.892,95.438,541.248,538.265,0.0
52855.0,STARLINK-4209,PAYLOAD,2022-11-15 13:09:58,15.08833912,0.0002125,53.2175,56.6512,34.6245,325.4885,0.00010601,1.399e-05,0.0,0 STARLINK-4209,1 52855U 22062AB  22319.54858977  .00001399  00000-0  10601-3 0  9990,2 52855  53.2175  56.6512 0002125  34.6245 325.4885 15.08833912 23234,6917.899,95.438,541.234,538.294,0.0
52855.0,STARLINK-4209,PAYLOAD,2022-11-16 13:00:45,15.08833179,0.0002058,53.2174,52.1887,35.9765,324.1366,6.0674e-05,6.77e-06,0.0,0 STARLINK-4209,1 52855U 22062AB  22320.54219510  .00000677  00000-0  60674-4 0  9990,2 52855  53.2174  52.1887 0002058  35.9765 324.1366 15.08833179 23386,6917.901,95.438,541.19,538.3430000000002,0.0
52855.0,STARLINK-4209,PAYLOAD,2022-11-17 01:43:50,15.08838992,0.0001984,53.2177,49.8098,32.974000000000004,327.1376,0.0002461,3.631e-05,0.0,0 STARLINK-4209,1 52855U 22062AB  22321.07211474  .00003631  00000-0  24610-3 0  9992,2 52855  53.2177  49.8098 0001984  32.9740 327.1376 15.08838992 23958,6917.8830000000025,95.438,541.121,538.376,0.0
52855.0,STARLINK-4209,PAYLOAD,2022-11-17 09:40:45,15.08852523,0.0002115,53.2174,48.3231,34.8559,325.2571,0.00021994,3.215e-05,0.0,0 STARLINK-4209,1 52855U 22062AB  22321.40330885  .00003215  00000-0  21994-3 0  9997,2 52855  53.2174  48.3231 0002115  34.8559 325.2571 15.08852523 24003,6917.842,95.437,541.17,538.244,0.0
52855.0,STARLINK-4209,PAYLOAD,2022-11-17 11:16:09,15.08850842,0.0002049,53.2175,48.0259,35.2926,324.8201,0.00040772,6.209e-05,0.0,0 STARLINK-4209,1 52855U 22062AB  22321.46955060  .00006209  00000-0  40772-3 0  9992,2 52855  53.2175  48.0259 0002049  35.2926 324.8201 15.08850842 23523,6917.847,95.437,541.13,538.295,0.0
52855.0,STARLINK-4209,PAYLOAD,2022-11-18 01:34:37,15.08845932,0.0002146,53.2176,45.3499,35.039,325.0743,0.00029095,4.346e-05,0.0,0 STARLINK-4209,1 52855U 22062AB  22322.06571159  .00004346  00000-0  29095-3 0  9997,2 52855  53.2176  45.3499 0002146  35.0390 325.0743 15.08845932 24104,6917.861999999999,95.437,541.212,538.243,0.0
52855.0,STARLINK-4209,PAYLOAD,2022-11-18 12:42:19,15.08841898,0.0002157,53.2176,43.2684,38.3284,321.7861,8.115100000000001e-05,1.004e-05,0.0,0 STARLINK-4209,1 52855U 22062AB  22322.52939224  .00001004  00000-0  81151-4 0  9999,2 52855  53.2176  43.2684 0002157  38.3284 321.7861 15.08841898 23680,6917.875,95.437,541.232,538.247,0.0
